CYGFM02                 
1 41886U 16078C   24287.91622658  .00018439  00000+0  57141-3 0  9996
2 41886  34.9463 252.2328 0013952 216.7869 143.1890 15.32447610434450
CYGFM01                 
1 41887U 16078D   24287.67721283  .00017957  00000+0  58689-3 0  9996
2 41887  34.9467 273.0040 0012667 193.8022 166.2350 15.30771622434150
CYGFM08                 
1 41888U 16078E   24287.61958346  .00018493  00000+0  58413-3 0  9994
2 41888  34.9496 260.4242 0014229 213.0647 146.9180 15.31836346434333
CYGFM07                 
1 41890U 16078G   24287.30966647  .00023131  00000+0  72187-3 0  9995
2 41890  34.9497 253.4834 0012414 226.1386 133.8305 15.32212733434282
CYGFM03                 
1 41891U 16078H   24287.61316237  .00019018  00000+0  59655-3 0  9998
2 41891  34.9464 252.8354 0010934 216.9280 143.0684 15.32095295434311
FENGYUN 3D              
1 43010U 17072A   24287.87352899  .00000512  00000+0  26496-3 0  9996
2 43010  98.9259 243.3034 0001966  32.0914 328.0380 14.19459664358258
NOAA 20 (JPSS-1)        
1 43013U 17073A   24287.82579779  .00000471  00000+0  24400-3 0  9990
2 43013  98.7143 223.7881 0000747 164.9633 195.1565 14.19537820357733
GOES 17                 
1 43226U 18022A   24287.60029615 -.00000092  00000+0  00000+0 0  9992
2 43226   0.0309  41.3180 0002740 183.6740 269.0797  1.00271225 24297
FENGYUN 2H              
1 43491U 18050A   24287.86830701 -.00000128  00000+0  00000+0 0  9991
2 43491   1.4461  86.1262 0001675 124.3632 204.2642  1.00267705 23300
METOP-C                 
1 43689U 18087A   24287.88722036  .00000569  00000+0  28004-3 0  9999
2 43689  98.7102 345.6984 0002566 104.0245 256.1217 14.21474569307987
GEO-KOMPSAT-2A          
1 43823U 18100A   24287.61716171 -.00000346  00000+0  00000+0 0  9995
2 43823   0.0536  46.9957 0001308  87.1531 238.9883  1.00270905 21494
METEOR-M2 2             
1 44387U 19038A   24287.90235031  .00000655  00000+0  30479-3 0  9994
2 44387  98.8432 257.6834 0001502  29.9640 330.1624 14.24019043274285
ARKTIKA-M 1             
1 47719U 21016A   24286.89204276  .00000115  00000+0  00000+0 0  9993
2 47719  63.1335 138.1002 6984603 268.5195  17.6774  2.00613145 26516
FENGYUN 3E              
1 49008U 21062A   24287.88359731  .00000176  00000+0  10381-3 0  9998
2 49008  98.7387 287.6047 0002574  66.4577 293.6869 14.19799241169839
GOES 18                 
1 51850U 22021A   24287.19077233  .00000096  00000+0  00000+0 0  9994
2 51850   0.0157  98.0058 0000492 163.4515  52.4637  1.00270795  9663
NOAA 21 (JPSS-2)        
1 54234U 22150A   24287.86268160  .00000494  00000+0  25534-3 0  9996
2 54234  98.7599 224.3960 0001829 115.8898 244.2467 14.19537606 99811
METEOSAT-12 (MTG-I1)    
1 54743U 22170C   24287.83556828 -.00000007  00000+0  00000+0 0  9999
2 54743   0.6016  43.3558 0001836 110.9300 169.1437  1.00273056  6841
TIANMU-1 03             
1 55973U 23039A   24287.89065749  .00017233  00000+0  66401-3 0  9992
2 55973  97.4800  78.1432 0005435 120.1376 240.0401 15.26393243 86936
TIANMU-1 04             
1 55974U 23039B   24287.86600978  .00016769  00000+0  64359-3 0  9992
2 55974  97.4724  77.5763 0006450 117.4590 242.7305 15.26524912 86927
TIANMU-1 05             
1 55975U 23039C   24287.85786441  .00017009  00000+0  65566-3 0  9991
2 55975  97.4771  77.9526 0005000 136.2045 223.9591 15.26384957 86915
TIANMU-1 06             
1 55976U 23039D   24287.89118558  .00017404  00000+0  66589-3 0  9999
2 55976  97.4786  78.1615 0005495 134.3735 225.7954 15.26626512 86927
METEOR-M2 3             
1 57166U 23091A   24287.86945219  .00000164  00000+0  90553-4 0  9993
2 57166  98.6992 341.4019 0004755 135.5036 224.6525 14.23937535 67513
TIANMU-1 07             
1 57399U 23101A   24287.86061621  .00010692  00000+0  50211-3 0  9992
2 57399  97.3498 341.7778 0006190 125.5243 234.6570 15.19781355 68433
TIANMU-1 08             
1 57400U 23101B   24287.89535643  .00011241  00000+0  52755-3 0  9994
2 57400  97.3487 341.6688 0008231 132.1080 228.0856 15.19779424 68432
TIANMU-1 09             
1 57401U 23101C   24287.87709757  .00010130  00000+0  47537-3 0  9990
2 57401  97.3443 341.4263 0008553 128.7693 231.4307 15.19807506 68432
TIANMU-1 10             
1 57402U 23101D   24287.91056517  .00011761  00000+0  55173-3 0  9991
2 57402  97.3523 341.8561 0010428 129.3826 230.8334 15.19762582 68433
FENGYUN 3F              
1 57490U 23111A   24287.90133601  .00000396  00000+0  20713-3 0  9992
2 57490  98.7582 355.8762 0001928 101.4195 258.7198 14.19907901 62114
ARKTIKA-M 2             
1 58584U 23198A   24287.12419268  .00000095  00000+0  00000+0 0  9991
2 58584  63.2438 221.8821 6936241 269.6440  17.6218  2.00609511  6043
TIANMU-1 11             
1 58645U 23205A   24287.85576327  .00009212  00000+0  46300-3 0  9995
2 58645  97.3972 310.0084 0010831   3.0575 357.0723 15.17426315 44499
TIANMU-1 12             
1 58646U 23205B   24287.87038580  .00010080  00000+0  50696-3 0  9990
2 58646  97.3958 309.9332 0008656 359.5076   0.6148 15.17395172 44481
TIANMU-1 13             
1 58647U 23205C   24287.90368640  .00009304  00000+0  46844-3 0  9995
2 58647  97.3986 310.0045 0008333 337.1041  22.9820 15.17382833 44487
TIANMU-1 14             
1 58648U 23205D   24287.88756125  .00010367  00000+0  52136-3 0  9994
2 58648  97.3911 309.7377 0009097 340.2060  19.8819 15.17386730 44486
TIANMU-1 19             
1 58660U 23208A   24287.75713985  .00012037  00000+0  60076-3 0  9992
2 58660  97.4174  37.4133 0005665 316.2400  43.8384 15.17636243 44138
TIANMU-1 20             
1 58661U 23208B   24287.75234456  .00011489  00000+0  55330-3 0  9991
2 58661  97.4107  37.4429 0008598 327.1989  32.8710 15.18877075 44158
TIANMU-1 21             
1 58662U 23208C   24287.86487296  .00014215  00000+0  66096-3 0  9997
2 58662  97.4147  38.0501 0008268 325.7808  34.2893 15.20045840 44191
TIANMU-1 22             
1 58663U 23208D   24287.89810949  .00011361  00000+0  56212-3 0  9994
2 58663  97.4167  37.6249 0004362 347.1245  12.9877 15.17961524 44166
TIANMU-1 15             
1 58700U 24004A   24287.88353688  .00010335  00000+0  51637-3 0  9998
2 58700  97.4632 107.0053 0009594   8.7521 351.3878 15.17615109 42758
TIANMU-1 16             
1 58701U 24004B   24287.86341336  .00010860  00000+0  54169-3 0  9990
2 58701  97.4559 106.7593 0009677  13.7854 346.3642 15.17660191 42753
TIANMU-1 17             
1 58702U 24004C   24287.85076907  .00011304  00000+0  56461-3 0  9990
2 58702  97.4602 106.9372 0007550  10.4076 349.7313 15.17618098 42748
TIANMU-1 18             
1 58703U 24004D   24287.83370830  .00010548  00000+0  52778-3 0  9997
2 58703  97.4621 107.0178 0006585   2.6862 357.4406 15.17580887 42742
INSAT-3DS               
1 58990U 24033A   24287.86841501 -.00000159  00000+0  00000+0 0  9993
2 58990   0.0413  67.3918 0001554 134.9033 215.3618  1.00272344 40938
METEOR-M2 4             
1 59051U 24039A   24287.88697337  .00000227  00000+0  12168-3 0  9993
2 59051  98.6138 246.9405 0007788 133.5459 226.6367 14.22282909 32362
GOES 19                 
1 60133U 24119A   24287.81775781 -.00000184  00000+0  00000+0 0  9999
2 60133   0.0115  39.2166 0000975  63.6841 124.8794  1.00270462   836
QAEM 100 R/B            
1 61071U 24165A   24287.85950458  .00006720  00000+0  47895-3 0  9990
2 61071  64.0948 243.4605 0006046 263.9719  96.0705 15.05365765  4458
CHAMRAN-1               
1 61072U 24165B   24287.87278956  .00012043  00000+0  78342-3 0  9995
2 61072  64.0890 242.9945 0016127 291.6055  68.3341 15.08205662  4469
2024-166A               
1 61179U 24166A   24287.89155720  .00062735  00000+0  31252-3 0  9991
2 61179  96.7651 182.8199 0015613 139.2086 221.0357 15.81544809  4204
2024-166B               
1 61180U 24166B   24287.89128635  .00065447  00000+0  32570-3 0  9995
2 61180  96.7651 182.8203 0015727 139.0914 221.1539 15.81555553  4184
QAEM 100 DEB            
1 61181U 24165C   24287.61104681  .00185943  00000+0  89574-2 0  9999
2 61181  64.1185 243.4717 0006526 257.7499 102.2890 15.17665859  4148
GSAT0232 (GALILEO 32)   
1 61182U 24167A   24287.14856881  .00000007  00000+0  00000+0 0  9997
2 61182  55.4046 238.1043 0016903 273.6477  86.1334  1.73176910   437
GSAT0226 (GALILEO 31)   
1 61183U 24167B   24287.36375069  .00000005  00000+0  00000+0 0  9994
2 61183  55.4015 238.1105 0032812  98.0137 262.3318  1.71381459   425
FALCON R/B              
1 61184U 24167C   24286.63535861  .00000011  00000+0  00000+0 0  9999
2 61184  55.4071 238.1267 0010029   6.1370 353.8521  1.72615242   403
2024-168A               
1 61185U 24168A   24287.08303118 -.00000037  00000+0  00000+0 0  9998
2 61185  54.9229 323.4258 0079223 294.5723  64.6703  1.80096358   440
2024-168B               
1 61186U 24168B   24286.21105845 -.00000036  00000+0  00000+0 0  9999
2 61186  54.9718 323.4431 0117609 177.6003 215.0234  1.82968737   420
2024-168C               
1 61187U 24168C   24285.62790295 -.00000036  00000+0  00000+0 0  9993
2 61187  54.9830 323.4525 0066441 180.2326 263.5801  1.84329342   428
2024-168D               
1 61188U 24168D   24287.71779864  .00150429  19887-6  16515-2 0  9997
2 61188  54.9996 310.1947 5785797 178.0787 185.9835  4.48074200  1109
2024-169A               
1 61189U 24169A   24287.89847300  .00011555  00000+0  73798-3 0  9992
2 61189  97.5976  13.0500 0009615 192.7788 167.3198 15.08778152  3576
2024-169B               
1 61190U 24169B   24287.89185770  .00011747  00000+0  74069-3 0  9995
2 61190  97.5874  13.0283 0009528 186.7829 173.3273 15.09244035  3575
2024-169C               
1 61191U 24169C   24287.88252480  .00011515  00000+0  71222-3 0  9999
2 61191  97.5941  13.0623 0010355 184.5157 175.5980 15.09948374  3575
